STARLINK-2719
1 48677U 21044AR  24101.43367178  .00001280  00000+0  10480-3 0  9996
2 48677  53.0572   6.1968 0001719  80.1960 279.9223 15.06409718159446
STARLINK-2610
1 48376U 21038Z   24101.11025536 -.00000485  00000+0 -13662-4 0  9993
2 48376  53.0529 247.6553 0002581  85.0914 275.0370 15.06401081162468
STARLINK-31013
1 58526U 23191U   24101.54381449 -.00000456  00000+0 -18712-4 0  9997
2 58526  43.0001 299.3804 0001502 276.2188  83.8483 15.02539559 20407
STARLINK-30801
1 58184U 23167K   24101.35167196  .00002976  00000+0  23523-3 0  9992
2 58184  43.0048 340.7972 0001547 264.5260  95.5406 15.02545548 25859
STARLINK-1996
1 47591U 21009AV  24101.50926367  .00000390  00000+0  45108-4 0  9997
2 47591  53.0550 275.8680 0002546  85.0148 275.1132 15.06407298176169
STARLINK-4411
1 53202U 22084P   24101.44564665  .00002935  00000+0  23299-3 0  9992
2 53202  97.6568 163.2693 0002111  97.1368 263.0097 15.01265948 94937
STARLINK-5911
1 55950U 23037AN  24101.39809504 -.00002957  00000+0 -24023-3 0  9993
2 55950  70.0015 225.1848 0002943 269.6012  90.4810 14.98309890 60215
STARLINK-5224
1 55397U 23014G   24100.70706436  .00000469  00000+0  47081-4 0  9991
2 55397  70.0012   6.9937 0002792 269.5975  90.4864 14.98329463 67843
STARLINK-6058
1 56797U 23078AG  24100.94435827 -.00000062  00000+0  26395-5 0  9991
2 56797  69.9989 306.2877 0002926 270.7603  89.3221 14.98329531 48274
STARLINK-2505
1 48411U 21038BL  24101.52860643  .00005233  00000+0  36985-3 0  9990
2 48411  53.0536 185.7854 0001195  80.2810 279.8314 15.06411971163363
STARLINK-3995
1 52632U 22052AL  24100.88653122  .00002877  00000+0  19872-3 0  9994
2 52632  53.2168 166.1719 0001352  89.0434 271.0713 15.08844863105504
STARLINK-2387
1 47806U 21018V   24100.85271877  .00002260  00000+0  17056-3 0  9990
2 47806  53.0543 143.8276 0001530  99.7308 260.3854 15.06394806171394
STARLINK-5759
1 55592U 23020Z   24100.67768973  .00000912  00000+0  82590-4 0  9992
2 55592  43.0025 202.5443 0001132 279.5480  80.5235 15.02538780 63779
STARLINK-2495
1 48325U 21036BB  24101.39868870  .00002444  00000+0  18292-3 0  9999
2 48325  53.0543 356.3643 0001273  81.3443 278.7690 15.06401195163371
STARLINK-5641
1 55359U 23013AE  24101.47459840  .00002076  00000+0  16876-3 0  9990
2 55359  43.0043 133.8990 0001553 275.9605  84.1060 15.02529052 67119
STARLINK-4676
1 53598U 22104L   24101.48679434  .00001311  00000+0  10040-3 0  9995
2 53598  53.2167 138.2154 0001547  92.0010 268.1160 15.08847134 89528
STARLINK-5859
1 55915U 23037B   24101.43191289 -.00000321  00000+0 -19095-4 0  9990
2 55915  69.9986 265.0596 0002972 271.6863  88.3956 14.98328856 59232
STARLINK-5141
1 55500U 23015BD  24100.91092791  .00003530  00000+0  27624-3 0  9995
2 55500  43.0038 175.5891 0001077 264.0346  96.0373 15.02533300 65495
STARLINK-5628
1 55466U 23015T   24100.58212728  .00001767  00000+0  14588-3 0  9998
2 55466  43.0040 164.4362 0001256 268.3831  91.6867 15.02532605 65591
STARLINK-30909
1 58363U 23177N   24101.54001338  .00003947  00000+0  30710-3 0  9993
2 58363  43.0010 185.3298 0001652 276.7043  83.3611 15.02532460 23201
STARLINK-4767
1 53850U 22114AJ  24100.96699351  .00004196  00000+0  28172-3 0  9998
2 53850  53.2143 190.4244 0001498  81.0355 279.0806 15.08820017 86951
STARLINK-5115
1 53989U 22125AB  24101.20256067  .00000085  00000+0  23421-4 0  9990
2 53989  53.2166 109.8251 0001420  91.1878 268.9277 15.08842184 84088
STARLINK-3081
1 49152U 21082Y   24101.57527757 -.00000060  00000+0  28005-5 0  9993
2 49152  70.0001 214.6326 0003147 270.8666  89.2133 14.98332970143522
STARLINK-5344
1 55494U 23015AX  24100.91535952  .00000885  00000+0  80596-4 0  9996
2 55494  43.0028 175.6240 0001245 272.2386  87.8314 15.02537841 65494
STARLINK-2019
1 47641U 21012X   24100.64537569  .00004794  00000+0  34052-3 0  9990
2 47641  53.0552 234.7460 0001304  73.8633 286.2500 15.06397306175936
STARLINK-2515
1 48323U 21036AZ  24101.40605374  .00009125  00000+0  63062-3 0  9995
2 48323  53.0541 356.3323 0001177  74.9817 285.1302 15.06405478163378
STARLINK-4796
1 53909U 22119Z   24100.60826223  .00004315  00000+0  28897-3 0  9996
2 53909  53.2126 212.6804 0001467  92.1823 267.9337 15.08844715 86287
STARLINK-5267
1 55655U 23021AD  24101.39274138 -.00000324  00000+0 -19395-4 0  9990
2 55655  69.9989 125.2250 0002837 263.3021  96.7815 14.98325629 64388
STARLINK-6174
1 57366U 23099AQ  24101.18571504  .00001501  00000+0  12616-3 0  9994
2 57366  43.0040  71.3975 0001206 273.2976  86.7729 15.02543989 41883
STARLINK-30890
1 58362U 23177M   24100.94281481  .00001369  00000+0  11636-3 0  9996
2 58362  43.0011 188.5894 0001333 277.1231  82.9460 15.02538439 23050
STARLINK-5573
1 55750U 23028K   24101.53969234 -.00000156  00000+0 -53182-5 0  9993
2 55750  70.0017 204.7570 0002685 265.5002  94.5851 14.98339135 61460
STARLINK-4695
1 53718U 22107U   24101.54579227  .00004225  00000+0  28343-3 0  9990
2 53718  53.2163 148.4744 0001697  99.6827 260.4357 15.08834560 88555
STARLINK-5415
1 54796U 22175AQ  24100.52954150  .00001702  00000+0  12498-3 0  9992
2 54796  53.2162 287.5211 0001201  81.1683 278.9445 15.08838258 72421
STARLINK-31246
1 58835U 24017K   24101.06303416 -.00007974  00000+0 -27567-3 0  9992
2 58835  53.1567 217.8628 0003905  94.4349 265.7097 15.27987951 12982
STARLINK-30284
1 57877U 23144P   24101.22094486  .00000984  00000+0  87898-4 0  9995
2 57877  43.0043  84.4393 0001343 266.3203  93.7486 15.02535296 32992
STARLINK-5603
1 55762U 23028X   24100.93445667  .00000493  00000+0  49141-4 0  9999
2 55762  70.0005 186.3767 0003197 271.4376  88.6417 14.98333105 61869
STARLINK-31321
1 58887U 24020M   24101.36116858  .00022484  00000+0  82055-3 0  9992
2 58887  53.1589 326.1141 0000782 129.0207 231.0862 15.28076190 12155
STARLINK-2127
1 47403U 21005BG  24100.79327179  .00000089  00000+0  24875-4 0  9994
2 47403  53.0542 289.0817 0001421  89.8148 270.3004 15.06396303178121
STARLINK-30782
1 58137U 23162V   24101.33201272  .00003962  00000+0  30806-3 0  9995
2 58137  43.0049 328.2009 0001315 265.0745  94.9947 15.02553036 27257
STARLINK-5707
1 56879U 23083D   24100.92209102  .00002198  00000+0  17776-3 0  9993
2 56879  43.0046 279.0314 0001501 262.7440  97.3232 15.02538125 46550
STARLINK-1974
1 47629U 21012K   24101.02549017  .00009329  00000+0  64410-3 0  9990
2 47629  53.0539 208.0422 0001117  97.8469 262.2647 15.06415320175847
STARLINK-31075
1 58594U 23200F   24101.09487197  .00000602  00000+0  59647-4 0  9993
2 58594  43.0024   6.5590 0001189 259.8184 100.2524 15.02539475 18539
STARLINK-2117
1 47395U 21005AY  24100.87159376  .00001973  00000+0  15129-3 0  9999
2 47395  53.0522 278.7319 0001550  89.4144 270.7023 15.06403432178279
STARLINK-5963
1 56780U 23078P   24100.96506851 -.00000614  00000+0 -43701-4 0  9994
2 56780  69.9983 306.3770 0003075 272.6733  87.4074 14.98327063 48277
STARLINK-5183
1 54084U 22136AK  24100.66898802 -.00002322  00000+0 -12793-3 0  9994
2 54084  53.2166 232.2902 0001619  89.0640 271.0537 15.08820182 81458
STARLINK-3352
1 51147U 22005AV  24100.98957485  .00001156  00000+0  90757-4 0  9993
2 51147  53.2234 205.7111 0002239 100.5377 259.5867 15.08841060124232
STARLINK-3602
1 51791U 22017Z   24100.42285714  .00003296  00000+0  22512-3 0  9999
2 51791  53.2190 248.2516 0001362  94.4945 265.6203 15.08828675118352
STARLINK-5571
1 55380U 23013BB  24100.75247191  .00000544  00000+0  55325-4 0  9999
2 55380  43.0023 124.9315 0001170 276.2014  83.8695 15.02535470 66723
STARLINK-5349
1 56512U 23065K   24100.88163143  .00001055  00000+0  93164-4 0  9993
2 56512  43.0064  47.6638 0001136 268.9737  91.0976 15.02532228 51508
STARLINK-3952
1 52534U 22051B   24101.47716914  .00003394  00000+0  23119-3 0  9993
2 52534  53.2182  23.5173 0001325  89.4754 270.6390 15.08843422106103
STARLINK-31310
1 59092U 24041U   24100.91514904  .00002489  00000+0  10496-3 0  9991
2 59092  43.0015 290.9401 0001482 293.8253  66.2442 15.25912172  7479
STARLINK-2067
1 47674U 21012BG  24100.84945222  .00001777  00000+0  13815-3 0  9999
2 47674  53.0553 308.8219 0001329  87.1863 272.9278 15.06411277174935
STARLINK-2238
1 48584U 21041AH  24100.83841651  .00001614  00000+0  12719-3 0  9994
2 48584  53.0567  38.8778 0001505  92.2823 267.8338 15.06408626159724
STARLINK-1334
1 45556U 20025AB  24100.94485753  .00005135  00000+0  36328-3 0  9994
2 45556  53.0560 343.4023 0001479  90.8598 269.2561 15.06409900219451
STARLINK-4485
1 53541U 22101Q   24101.01671746  .00000707  00000+0  62502-4 0  9996
2 53541  53.2191 330.5868 0001364  87.7619 272.3529 15.08836798 90695
STARLINK-5910
1 56000U 23042Q   24101.40564467  .00003210  00000+0  25273-3 0  9993
2 56000  43.0022 250.1087 0001523 273.2487  86.8181 15.02517781 58216
STARLINK-1729
1 46583U 20070BD  24101.28670735  .00002205  00000+0  16678-3 0  9990
2 46583  53.0560  71.8661 0001449  91.6657 268.4498 15.06421096194254
STARLINK-4361
1 53493U 22099AE  24101.23672470  .00001138  00000+0  93152-4 0  9991
2 53493  97.6552 223.0344 0006014 241.0204 119.0417 15.01265986 91435
STARLINK-30968
1 58511U 23191D   24100.98213911  .00000849  00000+0  77876-4 0  9996
2 58511  43.0008 302.8996 0001665 271.7401  88.3251 15.02540510 20310
STARLINK-1054
1 44759U 19074AY  24101.42955447  .00001871  00000+0  14446-3 0  9996
2 44759  53.0538 121.2257 0001473  96.7356 263.3801 15.06404682243127
STARLINK-3253
1 51136U 22005AJ  24101.53878094  .00003130  00000+0  21456-3 0  9994
2 51136  53.2161 193.0333 0001276  77.1798 282.9337 15.08859700124467
STARLINK-2296
1 47998U 21024X   24101.22132563  .00009778  00000+0  67412-3 0  9991
2 47998  53.0523 182.4096 0001318  96.0778 264.0361 15.06415530169454
STARLINK-2334
1 47792U 21018F   24100.80434908  .00002371  00000+0  17807-3 0  9992
2 47792  53.0553 129.0366 0001089  74.5801 285.5308 15.06391921171548
STARLINK-1795
1 46696U 20073AC  24101.42818275  .00003878  00000+0  27906-3 0  9990
2 46696  53.0530 116.2317 0001670  94.0757 266.0422 15.06406028192642
